{
  "type": "FeatureCollection",
  "features": [
    {
      "type": "Feature",
      "properties": {
        "norad_id": 38159,
        "name": "FENGYUN 1C DEB",
        "group": "fengyun-1c-debris",
        "lat": 58.392712060038036,
        "lon": -125.21758920214141,
        "alt_km": 890.4022040811515,
        "timestamp": "2025-12-24T07:45:06.489633+00:00",
        "meta_object_name": "FENGYUN 1C DEB",
        "meta_object_id": "1999-025ERG",
        "meta_epoch": "2025-12-04T22:05:20.152032",
        "meta_mean_motion": 14.03448484,
        "meta_eccentricity": 0.005704,
        "meta_inclination": 99.3156,
        "meta_ra_of_asc_node": 230.39,
        "meta_arg_of_pericenter": 2.347,
        "meta_mean_anomaly": 357.7952,
        "meta_ephemeris_type": 0,
        "meta_classification_type": "U",
        "meta_norad_cat_id": 38159,
        "meta_element_set_no": 999,
        "meta_rev_at_epoch": 83002,
        "meta_bstar": 0.0010527,
        "meta_mean_motion_dot": 1.625e-05,
        "meta_mean_motion_ddot": 0,
        "tle_line1": "1 38159U 99025ERG 25338.92037213  .00001625  00000+0  10527-2 0  9999",
        "tle_line2": "2 38159  99.3156 230.3900 0057040   2.3470 357.7952 14.03448484830021"
      },
      "geometry": {
        "type": "Point",
        "coordinates": [
          -125.21758920214141,
          58.392712060038036
        ]
      }
    },
    {
      "type": "Feature",
      "properties": {
        "norad_id": 38163,
        "name": "FENGYUN 1C DEB",
        "group": "fengyun-1c-debris",
        "lat": 76.72459996544355,
        "lon": -8.017090857215786,
        "alt_km": 901.1492904742827,
        "timestamp": "2025-12-24T07:45:06.489643+00:00",
        "meta_object_name": "FENGYUN 1C DEB",
        "meta_object_id": "1999-025ERL",
        "meta_epoch": "2025-12-18T21:33:29.990592",
        "meta_mean_motion": 14.05931251,
        "meta_eccentricity": 0.00762702,
        "meta_inclination": 99.1281,
        "meta_ra_of_asc_node": 29.4748,
        "meta_arg_of_pericenter": 225.191,
        "meta_mean_anomaly": 134.304,
        "meta_ephemeris_type": 0,
        "meta_classification_type": "U",
        "meta_norad_cat_id": 38163,
        "meta_element_set_no": 999,
        "meta_rev_at_epoch": 24628,
        "meta_bstar": 0.00077081788,
        "meta_mean_motion_dot": 1.25e-05,
        "meta_mean_motion_ddot": 0,
        "tle_line1": "1 38163U 99025ERL 25352.89826378  .00001250  00000+0  77082-3 0  9998",
        "tle_line2": "2 38163  99.1281  29.4748 0076270 225.1910 134.3040 14.05931251246287"
      },
      "geometry": {
        "type": "Point",
        "coordinates": [
          -8.017090857215786,
          76.72459996544355
        ]
      }
    },
    {
      "type": "Feature",
      "properties": {
        "norad_id": 38166,
        "name": "FENGYUN 1C DEB",
        "group": "fengyun-1c-debris",
        "lat": -72.38464621992173,
        "lon": 132.14976238891012,
        "alt_km": 791.7713988501673,
        "timestamp": "2025-12-24T07:45:06.489653+00:00",
        "meta_object_name": "FENGYUN 1C DEB",
        "meta_object_id": "1999-025ERP",
        "meta_epoch": "2025-12-22T05:45:31.701600",
        "meta_mean_motion": 14.3105877,
        "meta_eccentricity": 0.00517741,
        "meta_inclination": 99.0784,
        "meta_ra_of_asc_node": 99.7383,
        "meta_arg_of_pericenter": 15.971,
        "meta_mean_anomaly": 344.3089,
        "meta_ephemeris_type": 0,
        "meta_classification_type": "U",
        "meta_norad_cat_id": 38166,
        "meta_element_set_no": 999,
        "meta_rev_at_epoch": 63908,
        "meta_bstar": 0.0025364996,
        "meta_mean_motion_dot": 6.738e-05,
        "meta_mean_motion_ddot": 0,
        "tle_line1": "1 38166U 99025ERP 25356.23995025  .00006738  00000+0  25365-2 0  9991",
        "tle_line2": "2 38166  99.0784  99.7383 0051774  15.9710 344.3089 14.31058770639082"
      },
      "geometry": {
        "type": "Point",
        "coordinates": [
          132.14976238891012,
          -72.38464621992173
        ]
      }
    },
    {
      "type": "Feature",
      "properties": {
        "norad_id": 38169,
        "name": "FENGYUN 1C DEB",
        "group": "fengyun-1c-debris",
        "lat": -45.867571279467825,
        "lon": -16.89739799798663,
        "alt_km": 657.8929817712506,
        "timestamp": "2025-12-24T07:45:06.489663+00:00",
        "meta_object_name": "FENGYUN 1C DEB",
        "meta_object_id": "1999-025ERS",
        "meta_epoch": "2025-12-17T04:37:40.598400",
        "meta_mean_motion": 14.71570377,
        "meta_eccentricity": 0.00320132,
        "meta_inclination": 98.9779,
        "meta_ra_of_asc_node": 325.865,
        "meta_arg_of_pericenter": 54.7995,
        "meta_mean_anomaly": 305.6199,
        "meta_ephemeris_type": 0,
        "meta_classification_type": "U",
        "meta_norad_cat_id": 38169,
        "meta_element_set_no": 999,
        "meta_rev_at_epoch": 61334,
        "meta_bstar": 0.002130707,
        "meta_mean_motion_dot": 0.00013312,
        "meta_mean_motion_ddot": 0,
        "tle_line1": "1 38169U 99025ERS 25351.19283100  .00013312  00000+0  21307-2 0  9996",
        "tle_line2": "2 38169  98.9779 325.8650 0032013  54.7995 305.6199 14.71570377613347"
      },
      "geometry": {
        "type": "Point",
        "coordinates": [
          -16.89739799798663,
          -45.867571279467825
        ]
      }
    },
    {
      "type": "Feature",
      "properties": {
        "norad_id": 38173,
        "name": "FENGYUN 1C DEB",
        "group": "fengyun-1c-debris",
        "lat": -79.70758626939737,
        "lon": -40.134432612084915,
        "alt_km": 886.67566526467,
        "timestamp": "2025-12-24T07:45:06.489687+00:00",
        "meta_object_name": "FENGYUN 1C DEB",
        "meta_object_id": "1999-025ERW",
        "meta_epoch": "2025-12-16T11:20:48.017472",
        "meta_mean_motion": 14.37192423,
        "meta_eccentricity": 0.01631615,
        "meta_inclination": 99.0007,
        "meta_ra_of_asc_node": 250.8645,
        "meta_arg_of_pericenter": 101.6732,
        "meta_mean_anomaly": 260.2814,
        "meta_ephemeris_type": 0,
        "meta_classification_type": "U",
        "meta_norad_cat_id": 38173,
        "meta_element_set_no": 999,
        "meta_rev_at_epoch": 60697,
        "meta_bstar": 0.00064310917,
        "meta_mean_motion_dot": 2.179e-05,
        "meta_mean_motion_ddot": 0,
        "tle_line1": "1 38173U 99025ERW 25350.47277798  .00002179  00000+0  64311-3 0  9999",
        "tle_line2": "2 38173  99.0007 250.8645 0163161 101.6732 260.2814 14.37192423606974"
      },
      "geometry": {
        "type": "Point",
        "coordinates": [
          -40.134432612084915,
          -79.70758626939737
        ]
      }
    },
    {
      "type": "Feature",
      "properties": {
        "norad_id": 38493,
        "name": "FENGYUN 1C DEB",
        "group": "fengyun-1c-debris",
        "lat": -60.940838104137576,
        "lon": 120.23979406335253,
        "alt_km": 750.7972289071531,
        "timestamp": "2025-12-24T07:45:06.489701+00:00",
        "meta_object_name": "FENGYUN 1C DEB",
        "meta_object_id": "1999-025ESC",
        "meta_epoch": "2025-12-23T14:41:55.211712",
        "meta_mean_motion": 13.62325242,
        "meta_eccentricity": 0.04261312,
        "meta_inclination": 99.0798,
        "meta_ra_of_asc_node": 316.3011,
        "meta_arg_of_pericenter": 216.9195,
        "meta_mean_anomaly": 140.191,
        "meta_ephemeris_type": 0,
        "meta_classification_type": "U",
        "meta_norad_cat_id": 38493,
        "meta_element_set_no": 999,
        "meta_rev_at_epoch": 56646,
        "meta_bstar": 0.00019779283,
        "meta_mean_motion_dot": 2.4e-06,
        "meta_mean_motion_ddot": 0,
        "tle_line1": "1 38493U 99025ESC 25357.61244458  .00000240  00000+0  19779-3 0  9999",
        "tle_line2": "2 38493  99.0798 316.3011 0426131 216.9195 140.1910 13.62325242566469"
      },
      "geometry": {
        "type": "Point",
        "coordinates": [
          120.23979406335253,
          -60.940838104137576
        ]
      }
    },
    {
      "type": "Feature",
      "properties": {
        "norad_id": 38494,
        "name": "FENGYUN 1C DEB",
        "group": "fengyun-1c-debris",
        "lat": 45.31053381738307,
        "lon": -60.963133754858774,
        "alt_km": 780.4111551633059,
        "timestamp": "2025-12-24T07:45:06.489711+00:00",
        "meta_object_name": "FENGYUN 1C DEB",
        "meta_object_id": "1999-025ESD",
        "meta_epoch": "2025-12-23T02:23:48.420672",
        "meta_mean_motion": 14.00478654,
        "meta_eccentricity": 0.03834905,
        "meta_inclination": 98.4401,
        "meta_ra_of_asc_node": 306.5363,
        "meta_arg_of_pericenter": 340.1438,
        "meta_mean_anomaly": 18.514,
        "meta_ephemeris_type": 0,
        "meta_classification_type": "U",
        "meta_norad_cat_id": 38494,
        "meta_element_set_no": 999,
        "meta_rev_at_epoch": 7299,
        "meta_bstar": 0.0056480492,
        "meta_mean_motion_dot": 0.00015903,
        "meta_mean_motion_ddot": 0,
        "tle_line1": "1 38494U 99025ESD 25357.09986598  .00015903  00000+0  56480-2 0  9991",
        "tle_line2": "2 38494  98.4401 306.5363 0383490 340.1438  18.5140 14.00478654 72997"
      },
      "geometry": {
        "type": "Point",
        "coordinates": [
          -60.963133754858774,
          45.31053381738307
        ]
      }
    }
  ]
}